[
    {
        "Altitude(m)": 607897.642723209,
        "Argument of Periapsis(deg)": 0.0,
        "Eccentricity": 0.0,
        "Inclination(deg)": 60.0,
        "Latitude(deg)": -14.293092886309376,
        "Longitude(deg)": -73.38123773722384,
        "Mean Anomaly(deg)": -16.363600000000023,
        "RAAN(deg)": 35.0,
        "Satellite Name": "Test1 175",
        "Satellite Number": 175,
        "Semi-Major Axis(m)": 6980739.136638005,
        "Time(s)": 0
    },
    {
        "Altitude(m)": 607750.843017926,
        "Argument of Periapsis(deg)": 0.00010418945913296404,
        "Eccentricity": 0.0,
        "Inclination(deg)": 60.0,
        "Latitude(deg)": -13.758934150766986,
        "Longitude(deg)": -73.09416889662194,
        "Mean Anomaly(deg)": -15.743493854538185,
        "RAAN(deg)": 34.99957995086025,
        "Satellite Name": "Test1 175",
        "Satellite Number": 175,
        "Semi-Major Axis(m)": 6980739.136638005,
        "Time(s)": 10
    }
]